{
"type": "FeatureCollection",
"name": "plot_wgs84",
"crs": { "type": "name", "properties": { "name": "urn:ogc:def:crs:OGC:1.3:CRS84" } },
"features": [
{ "type": "Feature", "properties": { "id": "0" }, "geometry": { "type": "Polygon", "coordinates": [ [ [ 13.84, 52.88114 ], [ 13.84002, 52.88114 ], [ 13.84005, 52.88114 ], [ 13.84008, 52.88114 ], [ 13.8401, 52.88114 ], [ 13.84013, 52.88114 ], [ 13.84015, 52.88114 ], [ 13.84018, 52.88114 ], [ 13.84021, 52.88114 ], [ 13.84023, 52.88113 ], [ 13.84026, 52.88113 ], [ 13.84028, 52.88113 ], [ 13.84031, 52.88113 ], [ 13.84033, 52.88112 ], [ 13.84036, 52.88112 ], [ 13.84038, 52.88112 ], [ 13.84041, 52.88111 ], [ 13.84043, 52.88111 ], [ 13.84046, 52.8811 ], [ 13.84048, 52.8811 ], [ 13.84051, 52.88109 ], [ 13.84053, 52.88109 ], [ 13.84056, 52.88108 ], [ 13.84058, 52.88108 ], [ 13.8406, 52.88107 ], [ 13.84063, 52.88107 ], [ 13.84065, 52.88106 ], [ 13.84068, 52.88105 ], [ 13.8407, 52.88105 ], [ 13.84072, 52.88104 ], [ 13.84074, 52.88103 ], [ 13.84077, 52.88102 ], [ 13.84079, 52.88101 ], [ 13.84081, 52.88101 ], [ 13.84083, 52.881 ], [ 13.84085, 52.88099 ], [ 13.84088, 52.88098 ], [ 13.8409, 52.88097 ], [ 13.84092, 52.88096 ], [ 13.84094, 52.88095 ], [ 13.84096, 52.88094 ], [ 13.84098, 52.88093 ], [ 13.841, 52.88092 ], [ 13.84102, 52.88091 ], [ 13.84104, 52.8809 ], [ 13.84106, 52.88089 ], [ 13.84107, 52.88088 ], [ 13.84109, 52.88087 ], [ 13.84111, 52.88086 ], [ 13.84113, 52.88085 ], [ 13.84114, 52.88083 ], [ 13.84116, 52.88082 ], [ 13.84118, 52.88081 ], [ 13.84119, 52.8808 ], [ 13.84121, 52.88079 ], [ 13.84123, 52.88077 ], [ 13.84124, 52.88076 ], [ 13.84126, 52.88075 ], [ 13.84127, 52.88073 ], [ 13.84128, 52.88072 ], [ 13.8413, 52.88071 ], [ 13.84131, 52.88069 ], [ 13.84132, 52.88068 ], [ 13.84134, 52.88067 ], [ 13.84135, 52.88065 ], [ 13.84136, 52.88064 ], [ 13.84137, 52.88062 ], [ 13.84138, 52.88061 ], [ 13.84139, 52.8806 ], [ 13.8414, 52.88058 ], [ 13.84141, 52.88057 ], [ 13.84142, 52.88055 ], [ 13.84143, 52.88054 ], [ 13.84144, 52.88052 ], [ 13.84144, 52.88051 ], [ 13.84145, 52.88049 ], [ 13.84146, 52.88048 ], [ 13.84146, 52.88046 ], [ 13.84147, 52.88045 ], [ 13.84148, 52.88043 ], [ 13.84148, 52.88042 ], [ 13.84149, 52.8804 ], [ 13.84149, 52.88038 ], [ 13.84149, 52.88037 ], [ 13.8415, 52.88035 ], [ 13.8415, 52.88034 ], [ 13.8415, 52.88032 ], [ 13.8415, 52.88031 ], [ 13.84151, 52.88029 ], [ 13.84151, 52.88028 ], [ 13.84151, 52.88026 ], [ 13.84151, 52.88024 ], [ 13.84151, 52.88023 ], [ 13.84151, 52.88021 ], [ 13.84151, 52.8802 ], [ 13.8415, 52.88018 ], [ 13.8415, 52.88017 ], [ 13.8415, 52.88015 ], [ 13.8415, 52.88013 ], [ 13.84149, 52.88012 ], [ 13.84149, 52.8801 ], [ 13.84149, 52.88009 ], [ 13.84148, 52.88007 ], [ 13.84148, 52.88006 ], [ 13.84147, 52.88004 ], [ 13.84146, 52.88003 ], [ 13.84146, 52.88001 ], [ 13.84145, 52.88 ], [ 13.84144, 52.87998 ], [ 13.84143, 52.87997 ], [ 13.84143, 52.87995 ], [ 13.84142, 52.87994 ], [ 13.84141, 52.87992 ], [ 13.8414, 52.87991 ], [ 13.84139, 52.87989 ], [ 13.84138, 52.87988 ], [ 13.84137, 52.87986 ], [ 13.84136, 52.87985 ], [ 13.84135, 52.87984 ], [ 13.84133, 52.87982 ], [ 13.84132, 52.87981 ], [ 13.84131, 52.87979 ], [ 13.84129, 52.87978 ], [ 13.84128, 52.87977 ], [ 13.84127, 52.87975 ], [ 13.84125, 52.87974 ], [ 13.84124, 52.87973 ], [ 13.84122, 52.87972 ], [ 13.84121, 52.8797 ], [ 13.84119, 52.87969 ], [ 13.84118, 52.87968 ], [ 13.84116, 52.87967 ], [ 13.84114, 52.87965 ], [ 13.84113, 52.87964 ], [ 13.84111, 52.87963 ], [ 13.84109, 52.87962 ], [ 13.84107, 52.87961 ], [ 13.84105, 52.8796 ], [ 13.84103, 52.87959 ], [ 13.84101, 52.87958 ], [ 13.841, 52.87957 ], [ 13.84098, 52.87956 ], [ 13.84096, 52.87955 ], [ 13.84094, 52.87954 ], [ 13.84091, 52.87953 ], [ 13.84089, 52.87952 ], [ 13.84087, 52.87951 ], [ 13.84085, 52.8795 ], [ 13.84083, 52.87949 ], [ 13.84081, 52.87948 ], [ 13.84079, 52.87947 ], [ 13.84076, 52.87947 ], [ 13.84074, 52.87946 ], [ 13.84072, 52.87945 ], [ 13.8407, 52.87944 ], [ 13.84067, 52.87944 ], [ 13.84065, 52.87943 ], [ 13.84062, 52.87942 ], [ 13.8406, 52.87942 ], [ 13.84058, 52.87941 ], [ 13.84055, 52.87941 ], [ 13.84053, 52.8794 ], [ 13.8405, 52.87939 ], [ 13.84048, 52.87939 ], [ 13.84045, 52.87939 ], [ 13.84043, 52.87938 ], [ 13.8404, 52.87938 ], [ 13.84038, 52.87937 ], [ 13.84035, 52.87937 ], [ 13.84033, 52.87937 ], [ 13.8403, 52.87936 ], [ 13.84028, 52.87936 ], [ 13.84025, 52.87936 ], [ 13.84023, 52.87935 ], [ 13.8402, 52.87935 ], [ 13.84018, 52.87935 ], [ 13.84015, 52.87935 ], [ 13.84012, 52.87935 ], [ 13.8401, 52.87935 ], [ 13.84007, 52.87935 ], [ 13.84005, 52.87935 ], [ 13.84002, 52.87935 ], [ 13.83999, 52.87935 ], [ 13.83997, 52.87935 ], [ 13.83994, 52.87935 ], [ 13.83992, 52.87935 ], [ 13.83989, 52.87935 ], [ 13.83986, 52.87935 ], [ 13.83984, 52.87935 ], [ 13.83981, 52.87936 ], [ 13.83979, 52.87936 ], [ 13.83976, 52.87936 ], [ 13.83974, 52.87936 ], [ 13.83971, 52.87937 ], [ 13.83969, 52.87937 ], [ 13.83966, 52.87937 ], [ 13.83964, 52.87938 ], [ 13.83961, 52.87938 ], [ 13.83959, 52.87939 ], [ 13.83956, 52.87939 ], [ 13.83954, 52.8794 ], [ 13.83951, 52.8794 ], [ 13.83949, 52.87941 ], [ 13.83946, 52.87941 ], [ 13.83944, 52.87942 ], [ 13.83942, 52.87942 ], [ 13.83939, 52.87943 ], [ 13.83937, 52.87944 ], [ 13.83935, 52.87944 ], [ 13.83932, 52.87945 ], [ 13.8393, 52.87946 ], [ 13.83928, 52.87947 ], [ 13.83926, 52.87948 ], [ 13.83923, 52.87948 ], [ 13.83921, 52.87949 ], [ 13.83919, 52.8795 ], [ 13.83917, 52.87951 ], [ 13.83915, 52.87952 ], [ 13.83913, 52.87953 ], [ 13.83911, 52.87954 ], [ 13.83909, 52.87955 ], [ 13.83907, 52.87956 ], [ 13.83905, 52.87957 ], [ 13.83903, 52.87958 ], [ 13.83901, 52.87959 ], [ 13.83899, 52.8796 ], [ 13.83897, 52.87961 ], [ 13.83895, 52.87962 ], [ 13.83893, 52.87963 ], [ 13.83892, 52.87964 ], [ 13.8389, 52.87966 ], [ 13.83888, 52.87967 ], [ 13.83887, 52.87968 ], [ 13.83885, 52.87969 ], [ 13.83883, 52.8797 ], [ 13.83882, 52.87972 ], [ 13.8388, 52.87973 ], [ 13.83879, 52.87974 ], [ 13.83878, 52.87976 ], [ 13.83876, 52.87977 ], [ 13.83875, 52.87978 ], [ 13.83873, 52.8798 ], [ 13.83872, 52.87981 ], [ 13.83871, 52.87982 ], [ 13.8387, 52.87984 ], [ 13.83869, 52.87985 ], [ 13.83867, 52.87987 ], [ 13.83866, 52.87988 ], [ 13.83865, 52.87989 ], [ 13.83864, 52.87991 ], [ 13.83863, 52.87992 ], [ 13.83863, 52.87994 ], [ 13.83862, 52.87995 ], [ 13.83861, 52.87997 ], [ 13.8386, 52.87998 ], [ 13.83859, 52.88 ], [ 13.83859, 52.88001 ], [ 13.83858, 52.88003 ], [ 13.83857, 52.88004 ], [ 13.83857, 52.88006 ], [ 13.83856, 52.88007 ], [ 13.83856, 52.88009 ], [ 13.83855, 52.88011 ], [ 13.83855, 52.88012 ], [ 13.83855, 52.88014 ], [ 13.83854, 52.88015 ], [ 13.83854, 52.88017 ], [ 13.83854, 52.88018 ], [ 13.83854, 52.8802 ], [ 13.83854, 52.88021 ], [ 13.83854, 52.88023 ], [ 13.83854, 52.88025 ], [ 13.83854, 52.88026 ], [ 13.83854, 52.88028 ], [ 13.83854, 52.88029 ], [ 13.83854, 52.88031 ], [ 13.83854, 52.88032 ], [ 13.83854, 52.88034 ], [ 13.83855, 52.88036 ], [ 13.83855, 52.88037 ], [ 13.83855, 52.88039 ], [ 13.83856, 52.8804 ], [ 13.83856, 52.88042 ], [ 13.83857, 52.88043 ], [ 13.83857, 52.88045 ], [ 13.83858, 52.88046 ], [ 13.83859, 52.88048 ], [ 13.83859, 52.88049 ], [ 13.8386, 52.88051 ], [ 13.83861, 52.88052 ], [ 13.83862, 52.88054 ], [ 13.83863, 52.88055 ], [ 13.83864, 52.88057 ], [ 13.83865, 52.88058 ], [ 13.83866, 52.8806 ], [ 13.83867, 52.88061 ], [ 13.83868, 52.88063 ], [ 13.83869, 52.88064 ], [ 13.8387, 52.88065 ], [ 13.83871, 52.88067 ], [ 13.83872, 52.88068 ], [ 13.83874, 52.8807 ], [ 13.83875, 52.88071 ], [ 13.83876, 52.88072 ], [ 13.83878, 52.88074 ], [ 13.83879, 52.88075 ], [ 13.83881, 52.88076 ], [ 13.83882, 52.88077 ], [ 13.83884, 52.88079 ], [ 13.83885, 52.8808 ], [ 13.83887, 52.88081 ], [ 13.83889, 52.88082 ], [ 13.8389, 52.88084 ], [ 13.83892, 52.88085 ], [ 13.83894, 52.88086 ], [ 13.83895, 52.88087 ], [ 13.83897, 52.88088 ], [ 13.83899, 52.88089 ], [ 13.83901, 52.8809 ], [ 13.83903, 52.88091 ], [ 13.83905, 52.88092 ], [ 13.83907, 52.88093 ], [ 13.83909, 52.88094 ], [ 13.83911, 52.88095 ], [ 13.83913, 52.88096 ], [ 13.83915, 52.88097 ], [ 13.83917, 52.88098 ], [ 13.83919, 52.88099 ], [ 13.83921, 52.881 ], [ 13.83924, 52.88101 ], [ 13.83926, 52.88102 ], [ 13.83928, 52.88102 ], [ 13.8393, 52.88103 ], [ 13.83933, 52.88104 ], [ 13.83935, 52.88105 ], [ 13.83937, 52.88105 ], [ 13.8394, 52.88106 ], [ 13.83942, 52.88107 ], [ 13.83944, 52.88107 ], [ 13.83947, 52.88108 ], [ 13.83949, 52.88108 ], [ 13.83952, 52.88109 ], [ 13.83954, 52.8811 ], [ 13.83956, 52.8811 ], [ 13.83959, 52.8811 ], [ 13.83961, 52.88111 ], [ 13.83964, 52.88111 ], [ 13.83966, 52.88112 ], [ 13.83969, 52.88112 ], [ 13.83972, 52.88112 ], [ 13.83974, 52.88113 ], [ 13.83977, 52.88113 ], [ 13.83979, 52.88113 ], [ 13.83982, 52.88114 ], [ 13.83984, 52.88114 ], [ 13.83987, 52.88114 ], [ 13.83989, 52.88114 ], [ 13.83992, 52.88114 ], [ 13.83995, 52.88114 ], [ 13.83997, 52.88114 ], [ 13.84, 52.88114 ] ] ] } }
]
}
